OBJECT B                
1 51825U 22019B   24215.94158389  .00016570  00000+0  69843-3 0  9997
2 51825  97.4271 286.7488 0015301  78.6901 281.6054 15.23291375134346
